#dP2024  1  5  0  0  0.00000000      97 __u+U IGS20 FIT  IAC
## 2295 432000.00000000   900.00000000 60314 0.0000000000000
+  117   C06C07C08C09C10C11C12C13C14C16C19C20C21C22C23C24C25
+        C26C27C28C29C30C32C33C34C35C36C37C38C39C40C41C42C43
+        C44C45C46E02E03E04E05E07E08E09E10E11E12E13E14E15E18
+        E19E21E24E25E26E27E30E31E33E34E36G01G02G04G05G06G07
+        G08G09G10G11G12G13G14G15G16G17G18G19G20G21G22G23G24
+        G25G26G28G29G30G31G32J02J03J04R01R02R03R04R05R07R08
+        R09R11R12R13R14R15R16R17R18R19R20R21R22R24R25  0  0
++         7 10  7  7  7  6  7  7  9  7  5  6  6  5  5  5  5
++         5  6  6  6  6  6  5  5  6  6  6  6  6  6  5  6  5
++         6  5  6  4  4  4  4  4  4  4  4  4  4  4  4  4  4
++         4  4  4  4  4  4  4  4  4  4  4  3  3  3  3  3  3
++         3  3  3  3  3  3  3  3  3  3  3  3  3  3  3  3  3
++         3  3  3  3  3  3  3  9  9  9  7  6  6  7  6  6  6
++         6  6  7  8  7  7  6  7  6  7  7  6  7  7  7  0  0
%c M  cc GPS ccc cccc cccc cccc cccc ccccc ccccc ccccc ccccc
%c cc cc ccc ccc cccc cccc cccc cccc ccccc ccccc ccccc ccccc
%f  1.2500000  1.025000000  0.00000000000  0.000000000000000
%f  0.0000000  0.000000000  0.00000000000  0.000000000000000
%i    0    0    0    0      0      0      0      0         0
%i    0    0    0    0      0      0      0      0         0
/* INFORMATION & ANALYSIS CENTER (IAC)            FINAL DATA
/* S/V CLOCKS ARE ALIGNED TO GNSS TIME                      
/* G:C1WC2W R:C1PC2P E:C1XC5X C:C2IC6I J:C1CC2S             
/* PCV:IGS20_2290 OL/AL:FES2004  NONE     YN ORB:CoN CLK:CoN
*  2024 01 05  2 15  0.00000000
PC06  -4021.885828  25899.371279  33111.381622     29.924277
PC07 -15783.628649  33084.143776 -20889.795715   -586.356608
PC08  -5546.216848  40699.323566  -8934.910806    134.522688
PC09   6733.004456  30422.457293  29102.266582   -310.164853
PC10 -10090.702775  32859.583188 -24400.445801    138.447800
PC11 -21897.307882   4812.747327 -16547.587409    341.907085
PC12 -26724.665421  -8027.936474    376.658019    805.565920
PC13  -1089.324216  41899.460175  -2801.206590    403.930455
PC14 -21938.870508  16151.227618  -6160.205644   -101.371203
PC16  -4267.844327  25305.573001  33762.295590   -263.859880
PC19  18026.868210 -21061.804081  -3088.056055   -942.124064
PC20  22494.373337  -9989.497518  13138.755270    -35.503242
PC21 -13710.536913  -8179.579016 -22875.915522   -965.030199
PC22   2907.865760 -20654.763188 -18532.098647   -159.841823
PC23   3836.915071  27231.649675   4705.223982   -794.166057
PC24 -16917.049135  -1234.461537  22140.813978    759.378834
PC25  -8328.394017  19049.868165  18588.250264    294.357296
PC26 -15444.986240 -19304.154760  12957.782847   -230.164190
PC27  23316.895855  12686.997492  -8645.193083    252.194034
PC28   8483.721866  17093.668326 -20353.242459    191.160663
PC29  13994.204462 -11885.371927  21014.800390    223.895448
PC30  26805.712784    656.619596   7771.259140    -13.096767
PC32  13691.579662   8205.235882  22903.624309   -549.992294
PC33 -17940.640630  21169.953923   3014.844303   -942.291294
PC34 -26349.583220    432.099302  -9153.543977    340.187269
PC35  -9049.137325 -16830.880164  20314.646230    464.677751
PC36   9188.597713 -18296.046918 -18956.849093    -65.129514
PC37  14812.333517  20033.022326 -12539.968436   -931.436316
PC38  -9902.832067  37457.334217 -16383.204555    128.468882
PC39 -10819.830092  21578.357437  34614.750728     -6.473853
PC40 -23990.137407  27969.860601 -20717.313238    -50.725074
PC41  -3530.307592  21018.975880  18069.534432   -877.392283
PC42 -22303.712135   8716.523041 -14305.168738   -470.176266
PC43 -14904.149434  11514.343458 -20590.952431     55.128995
PC44 -23651.493044 -11904.824953   8748.732468    344.097775
PC45  -4068.684436 -27278.251500  -4363.056723    -60.623371
PC46  16608.007919     40.132172 -22434.621440   -113.072611
PE02   1767.490323 -27705.524275  10294.236217     92.406751
PE03  -1607.171164 -16969.650998 -24205.851216    -84.860635
PE04  21827.092392   8354.354559  18169.847472   -296.220013
PE05  19324.323511 -15617.230593 -16091.837407   4707.247174
PE07 -29142.689076   4840.490942  -1894.399678    -96.720373
PE08 -21312.409672  -8625.700213 -18649.632537   -203.022780
PE09  29136.025793  -4783.984106   2027.225722   -288.041347
PE10  23112.387773  12812.992733  13332.994449   -591.694592
PE11  20833.640800   3072.764583  20805.147669   3280.308534
PE12  21671.613970  19627.513296   4680.131533   -848.894340
PE13 -21057.541522  -3771.232194 -20443.895022    -19.824705
PE14  -2130.746980 -15940.645082  19059.474911      1.453440
PE15 -21493.679803 -19919.295753  -4134.992036    -78.449749
PE18  -7853.176015  20371.121045 -22555.571787    174.431734
PE19  -1203.944881  17225.962294  24043.731557   -875.999488
PE21 -13792.874278  25053.479440   7608.019808   -572.298415
PE24  18465.942330  -7127.777748 -22037.716295   -524.429256
PE25  13987.922270 -24847.517230  -7970.563198     -0.972366
PE26  -7874.788215  14937.283190 -24299.072470    330.005436
PE27 -18404.491443   7655.747679  21873.201020   -241.432457
PE30 -11945.568195 -14382.550859  22937.902504   -798.588169
PE31  12121.314223  14022.412368 -23075.020072    -13.102726
PE33   8858.789189  24053.269739 -14789.570042      5.412793
PE34  -9383.934538 -24142.248616  14336.487321    -87.219016
PE36   8333.603951 -14310.939315  24542.562329   -167.395425
PG01  20612.683263  11124.017830  12502.275140    165.298855
PG02  21802.775919  14180.495856   6470.027001   -505.561515
PG04  24667.584368   2368.666478   9747.713448    257.832106
PG05  -8496.826800 -17251.260086 -18457.794563   -156.760084
PG06   -699.372678 -19075.512752  18493.249568    455.585954
PG07  16550.314515  -3218.465400 -20148.293069    -29.417240
PG08  19683.648998   7177.584713 -16651.549565   -160.493892
PG09  25478.479420  -7446.405548  -1705.794256     48.665843
PG10 -10726.800709  23626.690957  -4575.302470    -68.061252
PG11  -9917.824069 -22645.537552   9799.508564   -527.922589
PG12 -13512.292686  -6637.836824  21601.518092   -464.635672
PG13 -10161.615626 -13476.027281 -20763.950965    612.704926
PG14  13505.462306 -21316.396046  -7964.353927    290.018026
PG15 -20104.566953  -5776.826001 -16974.430545    113.987095
PG16   2190.694579  21806.878707 -14995.781839   -390.572242
PG17  18382.576619 -12986.581735  14646.670829    720.605359
PG18 -15172.243597   4654.852746 -21312.172217   -524.212721
PG19   9574.401939 -14624.188036  19699.011120    422.133448
PG20  -1733.051970 -25573.061356  -7241.749132    393.134785
PG21  20957.156903  17068.332089   2288.859673    139.418768
PG22  10257.726348 -24671.590258    192.442425     53.763916
PG23 -15268.119057  14958.583365 -15624.173701    129.164949
PG24 -21482.723406 -15303.065637   4246.762873   -407.648225
PG25 -16423.179262   6537.506689  19405.858660    484.115687
PG26  -2219.635390  25794.151078  -5114.022629    203.239052
PG28  -1642.090591  17880.287896  19547.649717    -89.385675
PG29 -26263.269400   4247.020266   -812.295754   -609.096979
PG30   8582.318621 -13599.960457 -20985.004027   -449.285890
PG31   5877.788251  21600.602202  13763.152175   -227.095884
PG32 -14332.571164  15127.137998  16535.388853   -602.539138
PJ02 -32634.365740  24988.692636  14613.498661     -0.962380
PJ03 -23145.875030  19087.438068 -24979.846310     -0.122722
PJ04 -24936.863305  34242.649563   4811.140542     75.951976
PR01 -10736.908549  17085.731814  15608.800162     73.790163
PR02   5343.411367   9415.464195  23138.876001    -22.362993
PR03  18712.662514  -3169.937942  17123.356307     92.195378
PR04  21542.266641 -13546.211331   1937.377854    218.186779
PR05  12899.700003 -16712.446043 -14327.765884    124.883375
PR07 -19067.195395   3779.104314 -16445.080315     72.898223
PR08 -21344.520134  13834.021307  -1568.551052    -73.901037
PR09  -7513.276737 -22190.479807  10007.901812    162.635580
PR11  -9312.136145  10035.639370  21531.163407   -225.527667
PR12  -1591.601137  24241.601168   7765.927947     35.254135
PR13   6168.576245  23459.177684  -7902.683809    -42.962530
PR14  11261.458558   7709.459547 -21548.888701     25.892375
PR15   9096.346393 -11437.516681 -20894.779078     83.377394
PR16   1535.075029 -24139.121943  -8051.204569     22.194662
PR17  23432.508498   8842.364475   4749.455581     49.559522
PR18  17339.149452   -863.294559  18732.932971    120.474548
PR19   4253.124768  -9496.775970  23295.490630   -260.871541
PR20 -15553.304395 -15086.040230  13440.074354   -106.308461
PR21 -23373.208650  -8838.011484  -5178.016747    -66.429838
PR22 -16761.939780   1347.067637 -19143.626784    101.629488
PR24  16501.780531  14645.328783 -12766.682646    -38.641655
PR25 -23091.860770  -9758.797612  -4755.982322     15.922501
EOF
